UBAKUSAT                
1 43467U 98067NQ  19274.92217239  .00016530  00000-0  17048-3 0  9990
2 43467  51.6359 166.0825 0003044 116.1658 243.9651 15.64950397 79344
BATSU-CS1 (IRAZU)       
1 43468U 98067NR  19275.66115234  .00037861  00000-0  25503-3 0  9990
2 43468  51.6340 149.1853 0002208 167.1676 192.9380 15.74744302179616
CUBERRT                 
1 43546U 98067NU  19275.07129030  .00009349  00000-0  92258-4 0  9993
2 43546  51.6366 164.8281 0004305 163.8835 196.2299 15.66717773 69505
TEMPEST-D               
1 43547U 98067NV  19275.21437952  .00005385  00000-0  74278-4 0  9993
2 43547  51.6378 177.0522 0005815 152.3682 207.7621 15.58988381 69034
RAINCUBE                
1 43548U 98067NW  19275.32811872  .00016684  00000-0  18102-3 0  9990
2 43548  51.6355 169.5266 0005770 165.4802 194.6359 15.63637574 69594
HALOSAT                 
1 43549U 98067NX  19275.08179269  .00017570  00000-0  19128-3 0  9995
2 43549  51.6365 170.9046 0005487 166.9447 193.1690 15.63508660 69117
ENDUROSAT ONE           
1 43551U 98067NZ  19275.17546007  .00019890  00000-0  19844-3 0  9998
2 43551  51.6357 167.0253 0005876 175.9057 184.1988 15.65628031 69585
EQUISAT                 
1 43552U 98067PA  19275.31728737  .00016112  00000-0  17349-3 0  9999
2 43552  51.6375 168.7599 0006208 175.1392 184.9664 15.63860393 69532
AEROCUBE 12A            
1 43556U 18046C   19275.61256530  .00001263  00000-0  56821-4 0  9992
2 43556  51.6396 268.4788 0008989  88.9483 271.2527 15.28953974 67767
AEROCUBE 12B            
1 43557U 18046D   19275.57050393  .00000953  00000-0  46191-4 0  9991
2 43557  51.6421 268.9427 0008944  88.3073 271.8932 15.28800007 67700
UITMSAT-1               
1 43589U 98067PD  19275.17760978  .00017589  00000-0  18601-3 0  9997
2 43589  51.6346 169.9972 0005462 180.6809 179.4180 15.64250465 65243
MAYA-1                  
1 43590U 98067PE  19274.97985078  .00018378  00000-0  19403-3 0  9994
2 43590  51.6351 170.9346 0005604 180.3785 179.7206 15.64256713 65149
BHUTAN-1                
1 43591U 98067PF  19275.09434413  .00017492  00000-0  18449-3 0  9996
2 43591  51.6358 170.2293 0005708 181.7091 178.3886 15.64322384 65160
SIRIUSSAT-1             
1 43595U 98067PG  19275.26751492  .00016944  00000-0  18582-3 0  9997
2 43595  51.6347 171.3547 0004166 142.8902 217.2381 15.63356765 64343
SIRIUSSAT-2             
1 43596U 98067PH  19275.24490505  .00016360  00000-0  18078-3 0  9993
2 43596  51.6358 172.0005 0004628 143.3922 216.7390 15.63190820 64335
TANUSHA-3               
1 43597U 98067PJ  19275.31096921  .00022422  00000-0  22445-3 0  9995
2 43597  51.6340 168.6088 0004225 156.7312 203.3875 15.65465914 64389
SURFSAT                 
1 43614U 18070B   19275.60894623  .00003114  00000-0  83612-4 0  9999
2 43614  93.0334  47.3988 0013183 254.6011 105.3787 15.37921601 58689
CP7 (DAVE)              
1 43615U 18070C   19275.62072624  .00003069  00000-0  82676-4 0  9999
2 43615  93.0335  47.4027 0013294 253.8900 106.0890 15.37824351 58684
ELFIN-B                 
1 43616U 18070D   19275.38584267  .00004237  00000-0  11112-3 0  9998
2 43616  93.0296  47.2124 0014053 259.0014 100.9659 15.38612481 58669
ELFIN-A                 
1 43617U 18070E   19275.63638011  .00004358  00000-0  11407-3 0  9995
2 43617  93.0352  47.6140 0013314 254.0281 105.9507 15.38680762 58704
CUBEBEL-1 (BSUSAT-1)    
1 43666U 18083E   19276.10156084  .00001034  00000-0  54526-4 0  9999
2 43666  97.5145 299.8328 0015054 173.6729 272.3199 15.17739888 51421
DEBRISSAT-2             
1 43680U 98067PR  19275.21914463  .00029538  00000-0  27526-3 0  9997
2 43680  51.6347 168.0408 0004005 168.5218 191.5870 15.67087219 73115
CICERO 10               
1 43690U 18088A   19275.63860523  .00001018  00000-0  45603-4 0  9996
2 43690  85.0363 248.7449 0015254 170.3787 189.7749 15.19789016 49428
IRVINE01                
1 43693U 18088D   19275.63201016  .00002418  00000-0  10459-3 0  9990
2 43693  85.0342 248.1298 0019125 156.1061 204.1073 15.21715137 49475
PROXIMA I               
1 43694U 18088E   19275.66216760  .00001081  00000-0  45991-4 0  9991
2 43694  85.0308 247.9094 0020526 148.8185 211.4280 15.21516090 49491
PROXIMA II              
1 43696U 18088G   19275.39790277  .00001071  00000-0  45529-4 0  9999
2 43696  85.0309 248.0856 0020527 149.6976 210.5457 15.21519998 49441
FACSAT-1                
1 43721U 18096C   19275.67386148  .00001645  00000-0  65627-4 0  9994
2 43721  97.4507 345.3289 0016718 320.3536  39.6479 15.26515912 46904
CENTAURI-2              
1 43722U 18096D   19275.63767612  .00001952  00000-0  76726-4 0  9993
2 43722  97.4508 345.3805 0016802 320.9032  39.0991 15.26794448 46895
INNOSAT-2               
1 43738U 18096V   19275.67881136  .00002468  00000-0  89638-4 0  9991
2 43738  97.4513 346.4025 0023208 330.3766  29.6158 15.29041939 46973
SIRION PATHFINDER-2     
1 43759U 18099B   19275.66046715  .00000107  00000-0  14999-4 0  9998
2 43759  97.7362 346.3001 0013508 332.2536  27.7962 14.95164690 45256
CORVUS-BC 4             
1 43767U 18099K   19275.63906209 -.00000058  00000-0 -27006-7 0  9990
2 43767  97.7350 345.9650 0011156 337.6560  22.4173 14.94609957 45244
MOVE-II                 
1 43780U 18099Y   19275.68210373  .00000913  00000-0  88372-4 0  9998
2 43780  97.7362 346.2254 0012922 344.6952  15.3876 14.95137885 45249
SPACEBEE-7              
1 43816U 18099BL  19275.34106203  .00000743  00000-0  72302-4 0  9994
2 43816  97.7374 346.1116 0012445 329.7010  30.3490 14.95474387 44763
SPACEBEE-5              
1 43817U 18099BM  19275.24133155  .00000665  00000-0  64725-4 0  9993
2 43817  97.7403 346.1441 0012313 330.6366  29.4162 14.95790449 44751
SPACEBEE-6              
1 43818U 18099BN  19275.33002110  .00000563  00000-0  55953-4 0  9990
2 43818  97.7380 346.1428 0012459 329.1972  30.8517 14.95573619 44914
SHIELDS 1               
1 43850U 18104B   19275.69263948  .00000041  00000-0  00000+0 0  9999
2 43850  85.0306 346.4026 0012934 307.8408  52.1683 15.21154033 44130
STF-1                   
1 43852U 18104D   19275.66293455  .00000041  00000-0  00000+0 0  9994
2 43852  85.0377 346.7564 0011861 322.0618  37.9908 15.20755771 44114
ZACUBE-2                
1 43907U 18111AH  19276.18744858  .00000947  00000-0  41444-4 0  9996
2 43907  97.2794 178.4468 0021528 339.9437 175.9835 15.24281750 42668
LUME 1                  
1 43908U 18111AJ  19275.61456514  .00001283  00000-0  54769-4 0  9991
2 43908  97.2799 177.9329 0021103 342.3285  17.7216 15.24497269 42583
AOBA VELOX-IV           
1 43940U 19003J   19276.11459932  .00002434  00000-0  10220-3 0  9993
2 43940  97.2666 330.8330 0025817  58.1289   1.0396 15.24090828 39295
CATSAT-2                
1 44029U 98067PV  19275.24535513  .00013027  00000-0  17573-3 0  9990
2 44029  51.6385 182.5307 0004919 173.7784 186.3270 15.58156026 38024
DELPHINI                
1 44030U 98067PW  19274.97216579  .00014059  00000-0  18777-3 0  9992
2 44030  51.6369 183.6815 0004918 168.2148 191.8961 15.58345566 37954
UNITE                   
1 44031U 98067PX  19275.27901753  .00008685  00000-0  12537-3 0  9998
2 44031  51.6382 183.4902 0003605 164.0420 196.0686 15.56835757 37982
TECHEDSAT 8             
1 44032U 98067PY  19275.89688718  .00038042  00000-0  39374-3 0  9998
2 44032  51.6361 174.1055 0004341 166.7412 193.3698 15.64320676 38144
CATSAT-1                
1 44033U 98067PZ  19275.24525923  .00015600  00000-0  20907-3 0  9993
2 44033  51.6385 182.5313 0004682 173.2369 186.8687 15.58157136 37936
RAAVANA-1               
1 44329U 98067QE  19275.28037357  .00008592  00000-0  14149-3 0  9997
2 44329  51.6402 188.7597 0007979 114.3453 245.8371 15.53185201 16660
UGUISU                  
1 44330U 98067QF  19275.21869090  .00008441  00000-0  13936-3 0  9995
2 44330  51.6403 189.0973 0007949 112.8402 247.3429 15.53141587 16636
NEPALISAT-1             
1 44331U 98067QG  19275.21363377  .00008185  00000-0  13500-3 0  9995
2 44331  51.6403 189.0646 0008006 115.0872 245.0950 15.53217483 16649
SPOOQY-1                
1 44332U 98067QH  19275.33992381  .00007338  00000-0  12172-3 0  9995
2 44332  51.6401 188.4061 0006784 117.0087 243.1596 15.53245278 16629
SPACEBEE-9              
1 44370U 19037F   19275.92463405  .00007192  00000-0  18488-3 0  9996
2 44370  45.0116 117.2250 0014543 104.2956 255.9545 15.39890881 14708
SPACEBEE-8              
1 44371U 19037G   19275.96576826  .00014640  00000-0  35719-3 0  9995
2 44371  45.0085 116.6934 0014349 104.9405 255.3072 15.40726116 14706
MOVE-IIB                
1 44398U 19038N   19275.59814032  .00001504  00000-0  91533-4 0  9990
2 44398  97.4996 235.8273 0024187 301.5730  58.3139 15.11726984 13462
SONATE                  
1 44400U 19038Q   19275.59695211  .00000507  00000-0  33469-4 0  9996
2 44400  97.5011 235.8355 0023957 299.4080  60.4759 15.11690650 13465
LUCKY-7                 
1 44406U 19038W   19275.45354848  .00000769  00000-0  48466-4 0  9998
2 44406  97.5010 235.7193 0023432 300.0256  59.8650 15.11886697 13438
BEESAT 9                
1 44412U 19038AC  19275.85350369  .00001043  00000-0  64530-4 0  9999
2 44412  97.5008 236.1035 0021646 305.0421  54.8779 15.11856541 13191
JAISAT-1                
1 44419U 19038F   19275.62576840  .00001442  00000-0  86599-4 0  9997
2 44419  97.5009 235.9416 0020673 305.2012  54.7304 15.12349061 13475
SWIATOWID               
1 44426U 98067QL  19276.04162128  .00017297  00000-0  27774-3 0  9995
2 44426  51.6442 185.3377 0005475  85.3653  37.3709 15.53123718 14256
KRAKSAT                 
1 44427U 98067QM  19275.84319266  .00007724  00000-0  13162-3 0  9990
2 44427  51.6412 186.5263 0004810  79.3934 280.7597 15.52402365 14265
VCC A                   
1 44428U 98067QN  19275.31364624  .00009049  00000-0  15102-3 0  9999
2 44428  51.6412 188.9903 0004197  94.1385 266.0085 15.52747354 14186
